start=new Date('2023-04-09T00:00:00.000Z').valueOf();
sats=[{"PERIAPSIS":"546.399","MEAN_MOTION_DDOT":"0.0000000000000","TLE_LINE1":"1 47622U 21012C   23098.45163690  .00014108  00000-0  96491-3 0  9999","MEAN_MOTION":"15.06370369","TIME_SYSTEM":"UTC","OBJECT_TYPE":"PAYLOAD","OBJECT_ID":"2021-012C","REF_FRAME":"TEME","ARG_OF_PERICENTER":"77.9741","CENTER_NAME":"EARTH","REV_AT_EPOCH":"11927","COUNTRY_CODE":"US","MEAN_MOTION_DOT":"0.00014108","DECAY_DATE":null,"CLASSIFICATION_TYPE":"U","FILE":"3883527","INCLINATION":"53.0527","SEMIMAJOR_AXIS":"6925.439","NORAD_CAT_ID":"47622","MEAN_ELEMENT_THEORY":"SGP4","TLE_LINE2":"2 47622  53.0527 178.1384 0001308  77.9741 282.1395 15.06370369119274","MEAN_ANOMALY":"282.1395","APOAPSIS":"548.210","ELEMENT_SET_NO":"999","BSTAR":"0.00096491000000","RA_OF_ASC_NODE":"178.1384","EPOCH":"2023-04-08T10:50:21.428160","GP_ID":"229729230","ECCENTRICITY":"0.00013080","RCS_SIZE":"LARGE","LAUNCH_DATE":"2021-02-16","OBJECT_NAME":"STARLINK-1645","EPHEMERIS_TYPE":"0","PERIOD":"95.594","SITE":"AFETR"},{"INCLINATION":"53.0530","SEMIMAJOR_AXIS":"6925.365","CLASSIFICATION_TYPE":"U","FILE":"3883527","NORAD_CAT_ID":"47623","MEAN_ELEMENT_THEORY":"SGP4","MEAN_ANOMALY":"260.7968","TLE_LINE2":"2 47623  53.0530 113.0874 0001472  99.3188 260.7968 15.06394712120195","RA_OF_ASC_NODE":"113.0874","BSTAR":"0.00001653600000","ELEMENT_SET_NO":"999","APOAPSIS":"548.249","EPOCH":"2023-04-08T11:08:16.677024","RCS_SIZE":"LARGE","GP_ID":"229728482","ECCENTRICITY":"0.00014720","PERIOD":"95.592","EPHEMERIS_TYPE":"0","LAUNCH_DATE":"2021-02-16","OBJECT_NAME":"STARLINK-1655","SITE":"AFETR","PERIAPSIS":"546.210","MEAN_MOTION_DDOT":"0.0000000000000","TLE_LINE1":"1 47623U 21012D   23098.46408191 -.00000035  00000-0  16536-4 0  9997","TIME_SYSTEM":"UTC","MEAN_MOTION":"15.06394712","OBJECT_TYPE":"PAYLOAD","OBJECT_ID":"2021-012D","REF_FRAME":"TEME","COUNTRY_CODE":"US","REV_AT_EPOCH":"12019","CENTER_NAME":"EARTH","ARG_OF_PERICENTER":"99.3188","DECAY_DATE":null,"MEAN_MOTION_DOT":"-0.00000035"},{"TLE_LINE1":"1 47624U 21012E   23098.52444944  .00017373  00000-0  11825-2 0  9997","MEAN_MOTION":"15.06393640","TIME_SYSTEM":"UTC","PERIAPSIS":"546.482","MEAN_MOTION_DDOT":"0.0000000000000","CENTER_NAME":"EARTH","REV_AT_EPOCH":"11905","COUNTRY_CODE":"US","ARG_OF_PERICENTER":"82.9878","DECAY_DATE":null,"MEAN_MOTION_DOT":"0.00017373","OBJECT_ID":"2021-012E","OBJECT_TYPE":"PAYLOAD","REF_FRAME":"TEME","MEAN_ANOMALY":"277.1234","TLE_LINE2":"2 47624  53.0526 157.8206 0001085  82.9878 277.1234 15.06393640119050","RA_OF_ASC_NODE":"157.8206","APOAPSIS":"547.984","ELEMENT_SET_NO":"999","BSTAR":"0.00118250000000","INCLINATION":"53.0526","SEMIMAJOR_AXIS":"6925.368","FILE":"3883564","CLASSIFICATION_TYPE":"U","NORAD_CAT_ID":"47624","MEAN_ELEMENT_THEORY":"SGP4","EPHEMERIS_TYPE":"0","PERIOD":"95.593","LAUNCH_DATE":"2021-02-16","OBJECT_NAME":"STARLINK-1669","SITE":"AFETR","EPOCH":"2023-04-08T12:35:12.431616","GP_ID":"229734709","ECCENTRICITY":"0.00010850","RCS_SIZE":"LARGE"},{"CLASSIFICATION_TYPE":"U","FILE":"3883527","SEMIMAJOR_AXIS":"6925.412","INCLINATION":"53.0539","MEAN_ELEMENT_THEORY":"SGP4","NORAD_CAT_ID":"47625","TLE_LINE2":"2 47625  53.0539 177.8071 0001193  84.2412 275.8713 15.06379170119280","MEAN_ANOMALY":"275.8713","BSTAR":"0.00110610000000","ELEMENT_SET_NO":"999","APOAPSIS":"548.104","RA_OF_ASC_NODE":"177.8071","EPOCH":"2023-04-08T12:36:29.975616","RCS_SIZE":"LARGE","GP_ID":"229728984","ECCENTRICITY":"0.00011930","LAUNCH_DATE":"2021-02-16","OBJECT_NAME":"STARLINK-1704","PERIOD":"95.593","EPHEMERIS_TYPE":"0","SITE":"AFETR","PERIAPSIS":"546.451","MEAN_MOTION_DDOT":"0.0000000000000","TLE_LINE1":"1 47625U 21012F   23098.52534694  .00016223  00000-0  11061-2 0  9995","TIME_SYSTEM":"UTC","MEAN_MOTION":"15.06379170","OBJECT_TYPE":"PAYLOAD","OBJECT_ID":"2021-012F","REF_FRAME":"TEME","ARG_OF_PERICENTER":"84.2412","REV_AT_EPOCH":"11928","COUNTRY_CODE":"US","CENTER_NAME":"EARTH","MEAN_MOTION_DOT":"0.00016223","DECAY_DATE":null},{"MEAN_MOTION_DOT":"0.00023095","DECAY_DATE":null,"ARG_OF_PERICENTER":"97.3047","COUNTRY_CODE":"US","REV_AT_EPOCH":"11927","CENTER_NAME":"EARTH","REF_FRAME":"TEME","OBJECT_ID":"2021-012G","OBJECT_TYPE":"PAYLOAD","TIME_SYSTEM":"UTC","MEAN_MOTION":"15.06374774","TLE_LINE1":"1 47626U 21012G   23098.44520588  .00023095  00000-0  15653-2 0  9990","MEAN_MOTION_DDOT":"0.0000000000000","PERIAPSIS":"546.481","SITE":"AFETR","OBJECT_NAME":"STARLINK-1761","LAUNCH_DATE":"2021-02-16","PERIOD":"95.594","EPHEMERIS_TYPE":"0","RCS_SIZE":"LARGE","ECCENTRICITY":"0.00011690","GP_ID":"229729730","EPOCH":"2023-04-08T10:41:05.788032","ELEMENT_SET_NO":"999","BSTAR":"0.00156530000000","APOAPSIS":"548.100","RA_OF_ASC_NODE":"178.1769","TLE_LINE2":"2 47626  53.0521 178.1769 0001169  97.3047 262.8074 15.06374774119272","MEAN_ANOMALY":"262.8074","MEAN_ELEMENT_THEORY":"SGP4","NORAD_CAT_ID":"47626","FILE":"3883527","CLASSIFICATION_TYPE":"U","SEMIMAJOR_AXIS":"6925.426","INCLINATION":"53.0521"},{"TLE_LINE1":"1 47627U 21012H   23098.65483127  .00003049  00000-0  22350-3 0  9991","MEAN_MOTION":"15.06399600","TIME_SYSTEM":"UTC","PERIAPSIS":"546.474","MEAN_MOTION_DDOT":"0.0000000000000","ARG_OF_PERICENTER":"86.2720","CENTER_NAME":"EARTH","REV_AT_EPOCH":"12011","COUNTRY_CODE":"US","MEAN_MOTION_DOT":"0.00003049","DECAY_DATE":null,"OBJECT_ID":"2021-012H","OBJECT_TYPE":"PAYLOAD","REF_FRAME":"TEME","TLE_LINE2":"2 47627  53.0529  82.2296 0001069  86.2720 273.8391 15.06399600120119","MEAN_ANOMALY":"273.8391","APOAPSIS":"547.955","BSTAR":"0.00022350000000","ELEMENT_SET_NO":"999","RA_OF_ASC_NODE":"82.2296","CLASSIFICATION_TYPE":"U","FILE":"3883565","SEMIMAJOR_AXIS":"6925.350","INCLINATION":"53.0529","MEAN_ELEMENT_THEORY":"SGP4","NORAD_CAT_ID":"47627","OBJECT_NAME":"STARLINK-1972","LAUNCH_DATE":"2021-02-16","EPHEMERIS_TYPE":"0","PERIOD":"95.592","SITE":"AFETR","EPOCH":"2023-04-08T15:42:57.421728","GP_ID":"229734723","ECCENTRICITY":"0.00010690","RCS_SIZE":"LARGE"},{"NORAD_CAT_ID":"47628","MEAN_ELEMENT_THEORY":"SGP4","CLASSIFICATION_TYPE":"U","FILE":"3883527","INCLINATION":"53.0524","SEMIMAJOR_AXIS":"6925.356","APOAPSIS":"548.272","BSTAR":"0.00133540000000","ELEMENT_SET_NO":"999","RA_OF_ASC_NODE":"178.0032","TLE_LINE2":"2 47628  53.0524 178.0032 0001517  88.8352 271.2811 15.06397571119284","MEAN_ANOMALY":"271.2811","GP_ID":"229728233","ECCENTRICITY":"0.00015170","RCS_SIZE":"LARGE","EPOCH":"2023-04-08T11:32:48.270336","SITE":"AFETR","OBJECT_NAME":"STARLINK-1973","LAUNCH_DATE":"2021-02-16","EPHEMERIS_TYPE":"0","PERIOD":"95.592","MEAN_MOTION_DDOT":"0.0000000000000","PERIAPSIS":"546.170","MEAN_MOTION":"15.06397571","TIME_SYSTEM":"UTC","TLE_LINE1":"1 47628U 21012J   23098.48111424  .00019664  00000-0  13354-2 0  9994","REF_FRAME":"TEME","OBJECT_ID":"2021-012J","OBJECT_TYPE":"PAYLOAD","MEAN_MOTION_DOT":"0.00019664","DECAY_DATE":null,"ARG_OF_PERICENTER":"88.8352","CENTER_NAME":"EARTH","COUNTRY_CODE":"US","REV_AT_EPOCH":"11928"},{"REF_FRAME":"TEME","OBJECT_ID":"2021-012K","OBJECT_TYPE":"PAYLOAD","MEAN_MOTION_DOT":"0.00018949","DECAY_DATE":null,"ARG_OF_PERICENTER":"105.1024","COUNTRY_CODE":"US","REV_AT_EPOCH":"12091","CENTER_NAME":"EARTH","MEAN_MOTION_DDOT":"0.0000000000000","PERIAPSIS":"545.951","TIME_SYSTEM":"UTC","MEAN_MOTION":"15.06428787","TLE_LINE1":"1 47629U 21012K   23098.26457634  .00018949  00000-0  12866-2 0  9999","RCS_SIZE":"LARGE","GP_ID":"229729484","ECCENTRICITY":"0.00016960","EPOCH":"2023-04-08T06:20:59.395776","SITE":"AFETR","LAUNCH_DATE":"2021-02-16","OBJECT_NAME":"STARLINK-1974","PERIOD":"95.590","EPHEMERIS_TYPE":"0","MEAN_ELEMENT_THEORY":"SGP4","NORAD_CAT_ID":"47629","CLASSIFICATION_TYPE":"U","FILE":"3883527","SEMIMAJOR_AXIS":"6925.260","INCLINATION":"53.0538","ELEMENT_SET_NO":"999","BSTAR":"0.00128660000000","APOAPSIS":"548.300","RA_OF_ASC_NODE":"58.9828","TLE_LINE2":"2 47629  53.0538  58.9828 0001696 105.1024 255.0153 15.06428787120911","MEAN_ANOMALY":"255.0153"},{"REF_FRAME":"TEME","OBJECT_TYPE":"PAYLOAD","OBJECT_ID":"2021-012L","DECAY_DATE":null,"MEAN_MOTION_DOT":"0.00020978","CENTER_NAME":"EARTH","REV_AT_EPOCH":"11955","COUNTRY_CODE":"US","ARG_OF_PERICENTER":"85.6245","MEAN_MOTION_DDOT":"0.0000000000000","PERIAPSIS":"546.385","MEAN_MOTION":"15.06380186","TIME_SYSTEM":"UTC","TLE_LINE1":"1 47630U 21012L   23098.55393901  .00020978  00000-0  14238-2 0  9999","ECCENTRICITY":"0.00012840","GP_ID":"229729231","RCS_SIZE":"LARGE","EPOCH":"2023-04-08T13:17:40.330464","SITE":"AFETR","EPHEMERIS_TYPE":"0","PERIOD":"95.593","LAUNCH_DATE":"2021-02-16","OBJECT_NAME":"STARLINK-1983","MEAN_ELEMENT_THEORY":"SGP4","NORAD_CAT_ID":"47630","SEMIMAJOR_AXIS":"6925.409","INCLINATION":"53.0514","CLASSIFICATION_TYPE":"U","FILE":"3883527","RA_OF_ASC_NODE":"157.7761","APOAPSIS":"548.164","BSTAR":"0.00142380000000","ELEMENT_SET_NO":"999","MEAN_ANOMALY":"274.4890","TLE_LINE2":"2 47630  53.0514 157.7761 0001284  85.6245 274.4890 15.06380186119552"},{"SEMIMAJOR_AXIS":"6925.352","INCLINATION":"53.0548","FILE":"3883566","CLASSIFICATION_TYPE":"U","NORAD_CAT_ID":"47632","MEAN_ELEMENT_THEORY":"SGP4","MEAN_ANOMALY":"277.0498","TLE_LINE2":"2 47632  53.0548  82.1197 0001331  83.0643 277.0498 15.06398910120124","RA_OF_ASC_NODE":"82.1197","APOAPSIS":"548.139","BSTAR":"0.00014902000000","ELEMENT_SET_NO":"999","EPOCH":"2023-04-08T16:18:45.176256","ECCENTRICITY":"0.00013310","GP_ID":"229734743","RCS_SIZE":"LARGE","EPHEMERIS_TYPE":"0","PERIOD":"95.592","LAUNCH_DATE":"2021-02-16","OBJECT_NAME":"STARLINK-1992","SITE":"AFETR","PERIAPSIS":"546.295","MEAN_MOTION_DDOT":"0.0000000000000","TLE_LINE1":"1 47632U 21012N   23098.67968954  .00001939  00000-0  14902-3 0  9995","MEAN_MOTION":"15.06398910","TIME_SYSTEM":"UTC","OBJECT_ID":"2021-012N","OBJECT_TYPE":"PAYLOAD","REF_FRAME":"TEME","CENTER_NAME":"EARTH","REV_AT_EPOCH":"12012","COUNTRY_CODE":"US","ARG_OF_PERICENTER":"83.0643","DECAY_DATE":null,"MEAN_MOTION_DOT":"0.00001939"}];
